{
  "type": "FeatureCollection",
  "name": "farmintelytics_lulc",
  "crs": {
    "type": "name",
    "properties": {
      "name": "urn:ogc:def:crs:OGC:1.3:CRS84"
    }
  },
  "features": [
    {
      "type": "Feature",
      "properties": {
        "class_id": "LULC-001",
        "segment": "Cash Crop (Oil Palm / Cocoa)",
        "lulc_code": "AGR_CASH",
        "area_ha": 21.4,
        "pct": 60,
        "fill_color": "#16A34A"
      },
      "geometry": {
        "type": "Polygon",
        "coordinates": [
          [
            [
              3.355,
              7.143
            ],
            [
              3.355,
              7.152
            ],
            [
              3.367,
              7.152
            ],
            [
              3.367,
              7.143
            ],
            [
              3.355,
              7.143
            ]
          ]
        ]
      }
    },
    {
      "type": "Feature",
      "properties": {
        "class_id": "LULC-002",
        "segment": "Restoration Zone (Canopy)",
        "lulc_code": "FOREST_RESTORE",
        "area_ha": 7.1,
        "pct": 20,
        "fill_color": "#15803D"
      },
      "geometry": {
        "type": "Polygon",
        "coordinates": [
          [
            [
              3.349,
              7.14
            ],
            [
              3.349,
              7.145
            ],
            [
              3.354,
              7.145
            ],
            [
              3.354,
              7.14
            ],
            [
              3.349,
              7.14
            ]
          ]
        ]
      }
    },
    {
      "type": "Feature",
      "properties": {
        "class_id": "LULC-003",
        "segment": "Forest Buffer Zone",
        "lulc_code": "FOREST_BUFFER",
        "area_ha": 5.4,
        "pct": 15,
        "fill_color": "#166534"
      },
      "geometry": {
        "type": "Polygon",
        "coordinates": [
          [
            [
              3.355,
              7.133
            ],
            [
              3.355,
              7.138
            ],
            [
              3.362,
              7.138
            ],
            [
              3.362,
              7.133
            ],
            [
              3.355,
              7.133
            ]
          ]
        ]
      }
    },
    {
      "type": "Feature",
      "properties": {
        "class_id": "LULC-004",
        "segment": "Infrastructure / Facilities",
        "lulc_code": "BUILT_UP",
        "area_ha": 1.8,
        "pct": 5,
        "fill_color": "#94A3B8"
      },
      "geometry": {
        "type": "Polygon",
        "coordinates": [
          [
            [
              3.361,
              7.14
            ],
            [
              3.361,
              7.143
            ],
            [
              3.365,
              7.143
            ],
            [
              3.365,
              7.14
            ],
            [
              3.361,
              7.14
            ]
          ]
        ]
      }
    }
  ]
}