{
  "type": "FeatureCollection",
  "name": "farmintelytics_plots",
  "crs": {
    "type": "name",
    "properties": {
      "name": "urn:ogc:def:crs:OGC:1.3:CRS84"
    }
  },
  "features": [
    {
      "type": "Feature",
      "properties": {
        "plot_id": "PLOT-ALPHA",
        "name": "West Valley Plot",
        "estate": "West Valley Estate",
        "area_ha": 12.5,
        "historical_yield_base": 18.5,
        "sentinel_blue": 0.05,
        "sentinel_red": 0.08,
        "sentinel_nir": 0.65,
        "sentinel_swir1": 0.2,
        "sentinel_swir2": 0.12
      },
      "geometry": {
        "type": "Polygon",
        "coordinates": [
          [
            [
              3.355,
              7.145
            ],
            [
              3.355,
              7.15
            ],
            [
              3.36,
              7.15
            ],
            [
              3.36,
              7.145
            ],
            [
              3.355,
              7.145
            ]
          ]
        ]
      }
    },
    {
      "type": "Feature",
      "properties": {
        "plot_id": "PLOT-BETA",
        "name": "East Ridge Plot",
        "estate": "West Valley Estate",
        "area_ha": 8.2,
        "historical_yield_base": 14.2,
        "sentinel_blue": 0.06,
        "sentinel_red": 0.14,
        "sentinel_nir": 0.4,
        "sentinel_swir1": 0.22,
        "sentinel_swir2": 0.16
      },
      "geometry": {
        "type": "Polygon",
        "coordinates": [
          [
            [
              3.362,
              7.145
            ],
            [
              3.362,
              7.15
            ],
            [
              3.367,
              7.15
            ],
            [
              3.367,
              7.145
            ],
            [
              3.362,
              7.145
            ]
          ]
        ]
      }
    },
    {
      "type": "Feature",
      "properties": {
        "plot_id": "PLOT-GAMMA",
        "name": "South Slope Plot",
        "estate": "North Ridge Estate",
        "area_ha": 15.0,
        "historical_yield_base": 16.0,
        "sentinel_blue": 0.04,
        "sentinel_red": 0.07,
        "sentinel_nir": 0.68,
        "sentinel_swir1": 0.18,
        "sentinel_swir2": 0.1
      },
      "geometry": {
        "type": "Polygon",
        "coordinates": [
          [
            [
              3.355,
              7.138
            ],
            [
              3.355,
              7.143
            ],
            [
              3.36,
              7.143
            ],
            [
              3.36,
              7.138
            ],
            [
              3.355,
              7.138
            ]
          ]
        ]
      }
    }
  ]
}